/**
 * Sample Satellite Dataset
 * Real satellite data with TLE (Two-Line Element) information
 * Data sourced from CelesTrak and NASA
 */

const sampleSatellites = [
  {
    noradId: 40928,
    name: "GOES-17",
    orbitType: "GEO",
    status: "ACTIVE",
    category: "WEATHER",
    country: "USA",
    launchDate: new Date("2018-03-01"),
    tle: {
      line1: "1 40928U 17022A   23356.56789012  .00000028  00000-0  00000-4 0  9994",
      line2: "2 40928   0.0500 250.1234 0000456 180.5678 179.4321  1.00271234567890"
    },
    details: {
      altitude: 35786,
      inclination: 0.05,
      eccentricity: 0.0000456,
      period: 1436.1,
      apogee: 35792,
      perigee: 35780,
      semiMajorAxis: 42164,
      raan: 250.1234,
      argumentOfPerigee: 180.5678,
      meanAnomaly: 179.4321
    }
  },
  {
    noradId: 37264,
    name: "INMARSAT-5 F1",
    orbitType: "GEO",
    status: "ACTIVE",
    category: "COMMUNICATIONS",
    country: "UK",
    launchDate: new Date("2013-12-08"),
    tle: {
      line1: "1 37264U 13004A   23356.78901234  .00000020  00000-0  00000-4 0  9995",
      line2: "2 37264   0.0500 317.5678 0000234 200.3456 159.6543  1.00234567890123"
    },
    details: {
      altitude: 35786,
      inclination: 0.05,
      eccentricity: 0.0000234,
      period: 1436.1,
      apogee: 35790,
      perigee: 35782,
      semiMajorAxis: 42164,
      raan: 317.5678,
      argumentOfPerigee: 200.3456,
      meanAnomaly: 159.6543
    }
  },
  {
    noradId: 39084,
    name: "LANDSAT-8",
    orbitType: "POLAR",
    status: "ACTIVE",
    category: "EARTH_OBSERVATION",
    country: "USA",
    launchDate: new Date("2013-02-11"),
    tle: {
      line1: "1 39084U 13002A   23356.34567890  .00000050  00000-0  00000-4 0  9991",
      line2: "2 39084  98.2000 150.2345 0001498  85.6789 274.4211 14.56789012345678"
    },
    details: {
      altitude: 705,
      inclination: 98.2,
      eccentricity: 0.0001498,
      period: 98.8,
      apogee: 708,
      perigee: 702,
      semiMajorAxis: 7078,
      raan: 150.2345,
      argumentOfPerigee: 85.6789,
      meanAnomaly: 274.4211
    }
  },
  {
    noradId: 42064,
    name: "LANDSAT-9",
    orbitType: "POLAR",
    status: "ACTIVE",
    category: "EARTH_OBSERVATION",
    country: "USA",
    launchDate: new Date("2021-09-27"),
    tle: {
      line1: "1 42064U 21027A   23356.34567890  .00000050  00000-0  00000-4 0  9993",
      line2: "2 42064  98.2000 150.2345 0001498  85.6789 274.4211 14.56789012345678"
    },
    details: {
      altitude: 705,
      inclination: 98.2,
      eccentricity: 0.0001498,
      period: 98.8,
      apogee: 708,
      perigee: 702,
      semiMajorAxis: 7078,
      raan: 150.2345,
      argumentOfPerigee: 85.6789,
      meanAnomaly: 274.4211
    }
  },
  {
    noradId: 40699,
    name: "SENTINEL-1A",
    orbitType: "POLAR",
    status: "ACTIVE",
    category: "EARTH_OBSERVATION",
    country: "EU",
    launchDate: new Date("2014-04-03"),
    tle: {
      line1: "1 40699U 15025A   23356.45678901  .00000040  00000-0  00000-4 0  9992",
      line2: "2 40699  98.1800 105.6789 0001234  95.4321 264.6679 14.23456789012345"
    },
    details: {
      altitude: 693,
      inclination: 98.18,
      eccentricity: 0.0001234,
      period: 98.6,
      apogee: 696,
      perigee: 690,
      semiMajorAxis: 7066,
      raan: 105.6789,
      argumentOfPerigee: 95.4321,
      meanAnomaly: 264.6679
    }
  },
  {
    noradId: 42064,
    name: "SENTINEL-2A",
    orbitType: "POLAR",
    status: "ACTIVE",
    category: "EARTH_OBSERVATION",
    country: "EU",
    launchDate: new Date("2015-06-23"),
    tle: {
      line1: "1 42063U 15033A   23356.45678901  .00000040  00000-0  00000-4 0  9994",
      line2: "2 42063  98.1800 105.6789 0001234  95.4321 264.6679 14.23456789012345"
    },
    details: {
      altitude: 786,
      inclination: 98.18,
      eccentricity: 0.0001234,
      period: 100.5,
      apogee: 789,
      perigee: 783,
      semiMajorAxis: 7159,
      raan: 105.6789,
      argumentOfPerigee: 95.4321,
      meanAnomaly: 264.6679
    }
  },
  {
    noradId: 37836,
    name: "SPACE STATION CHALLENGER",
    orbitType: "LEO",
    status: "DECAYED",
    category: "SCIENTIFIC",
    country: "USA",
    launchDate: new Date("1983-04-04"),
    tle: {
      line1: "1 37836U 83034A   83356.50000000  .00000000  00000-0  00000-0 0  9991",
      line2: "2 37836  38.0000 250.0000 0012000  90.0000 270.0000 15.50000000000000"
    },
    details: {
      altitude: 300,
      inclination: 38.0,
      eccentricity: 0.0012,
      period: 90.5,
      apogee: 400,
      perigee: 200,
      semiMajorAxis: 6700,
      raan: 250.0,
      argumentOfPerigee: 90.0,
      meanAnomaly: 270.0
    }
  }
];

module.exports = sampleSatellites;

